{
  "type": "FeatureCollection",
  "features": [
    {
      "type": "Feature",
      "properties": {
        "norad_id": 65731,
        "name": "1998-067XK",
        "group": "stations",
        "lat": -30.954631600297688,
        "lon": 73.92858401484447,
        "alt_km": 368.39977114442263,
        "timestamp": "2025-12-19T14:48:34.990386+00:00",
        "meta_object_name": "1998-067XK",
        "meta_object_id": "1998-067XK",
        "meta_epoch": "2025-12-18T14:29:38.955840",
        "meta_mean_motion": 15.66848038,
        "meta_eccentricity": 0.0004791,
        "meta_inclination": 51.6292,
        "meta_ra_of_asc_node": 107.4546,
        "meta_arg_of_pericenter": 283.3796,
        "meta_mean_anomaly": 76.6665,
        "meta_ephemeris_type": 0,
        "meta_classification_type": "U",
        "meta_norad_cat_id": 65731,
        "meta_element_set_no": 999,
        "meta_rev_at_epoch": 1406,
        "meta_bstar": 0.00083587979,
        "meta_mean_motion_dot": 0.00090673,
        "meta_mean_motion_ddot": 0,
        "tle_line1": "1 65731U 98067XK  25352.60392310  .00090673  00000+0  83588-3 0  9992",
        "tle_line2": "2 65731  51.6292 107.4546 0004791 283.3796  76.6665 15.66848038 14061"
      },
      "geometry": {
        "type": "Point",
        "coordinates": [
          73.92858401484447,
          -30.954631600297688
        ]
      }
    },
    {
      "type": "Feature",
      "properties": {
        "norad_id": 65732,
        "name": "RSP-03",
        "group": "stations",
        "lat": 6.442454287256508,
        "lon": 106.57278337870295,
        "alt_km": 356.7250707105568,
        "timestamp": "2025-12-19T14:48:34.990397+00:00",
        "meta_object_name": "RSP-03",
        "meta_object_id": "1998-067XL",
        "meta_epoch": "2025-12-19T07:08:16.956672",
        "meta_mean_motion": 15.70252106,
        "meta_eccentricity": 0.00056592,
        "meta_inclination": 51.6265,
        "meta_ra_of_asc_node": 103.0728,
        "meta_arg_of_pericenter": 294.2748,
        "meta_mean_anomaly": 65.7658,
        "meta_ephemeris_type": 0,
        "meta_classification_type": "U",
        "meta_norad_cat_id": 65732,
        "meta_element_set_no": 999,
        "meta_rev_at_epoch": 1419,
        "meta_bstar": 0.00086015321,
        "meta_mean_motion_dot": 0.00107626,
        "meta_mean_motion_ddot": 0,
        "tle_line1": "1 65732U 98067XL  25353.29741848  .00107626  00000+0  86015-3 0  9998",
        "tle_line2": "2 65732  51.6265 103.0728 0005659 294.2748  65.7658 15.70252106 14193"
      },
      "geometry": {
        "type": "Point",
        "coordinates": [
          106.57278337870295,
          6.442454287256508
        ]
      }
    },
    {
      "type": "Feature",
      "properties": {
        "norad_id": 65733,
        "name": "GHS-01",
        "group": "stations",
        "lat": 51.28460922657937,
        "lon": -161.5547861254106,
        "alt_km": 333.2616765773382,
        "timestamp": "2025-12-19T14:48:34.990411+00:00",
        "meta_object_name": "GHS-01",
        "meta_object_id": "1998-067XM",
        "meta_epoch": "2025-12-18T21:41:04.642944",
        "meta_mean_motion": 15.77485683,
        "meta_eccentricity": 0.00079897,
        "meta_inclination": 51.6277,
        "meta_ra_of_asc_node": 103.4385,
        "meta_arg_of_pericenter": 320.4925,
        "meta_mean_anomaly": 39.5492,
        "meta_ephemeris_type": 0,
        "meta_classification_type": "U",
        "meta_norad_cat_id": 65733,
        "meta_element_set_no": 999,
        "meta_rev_at_epoch": 1415,
        "meta_bstar": 0.001190379,
        "meta_mean_motion_dot": 0.00206465,
        "meta_mean_motion_ddot": 0,
        "tle_line1": "1 65733U 98067XM  25352.90352596  .00206465  00000+0  11904-2 0  9999",
        "tle_line2": "2 65733  51.6277 103.4385 0007989 320.4925  39.5492 15.77485683 14153"
      },
      "geometry": {
        "type": "Point",
        "coordinates": [
          -161.5547861254106,
          51.28460922657937
        ]
      }
    },
    {
      "type": "Feature",
      "properties": {
        "norad_id": 65941,
        "name": "YOTSUBA-KULOVER",
        "group": "stations",
        "lat": -50.67164709193199,
        "lon": 30.130350254492765,
        "alt_km": 390.34767416027535,
        "timestamp": "2025-12-19T14:48:34.990422+00:00",
        "meta_object_name": "YOTSUBA-KULOVER",
        "meta_object_id": "1998-067XN",
        "meta_epoch": "2025-12-19T07:28:08.604480",
        "meta_mean_motion": 15.60314479,
        "meta_eccentricity": 0.00017577,
        "meta_inclination": 51.6289,
        "meta_ra_of_asc_node": 106.9268,
        "meta_arg_of_pericenter": 319.807,
        "meta_mean_anomaly": 40.2793,
        "meta_ephemeris_type": 0,
        "meta_classification_type": "U",
        "meta_norad_cat_id": 65941,
        "meta_element_set_no": 999,
        "meta_rev_at_epoch": 1088,
        "meta_bstar": 0.00063692878,
        "meta_mean_motion_dot": 0.00052969,
        "meta_mean_motion_ddot": 0,
        "tle_line1": "1 65941U 98067XN  25353.31121070  .00052969  00000+0  63693-3 0  9998",
        "tle_line2": "2 65941  51.6289 106.9268 0001757 319.8070  40.2793 15.60314479 10880"
      },
      "geometry": {
        "type": "Point",
        "coordinates": [
          30.130350254492765,
          -50.67164709193199
        ]
      }
    },
    {
      "type": "Feature",
      "properties": {
        "norad_id": 65942,
        "name": "BOTAN",
        "group": "stations",
        "lat": -16.18699902817505,
        "lon": 91.21387398770882,
        "alt_km": 376.480505178356,
        "timestamp": "2025-12-19T14:48:34.990432+00:00",
        "meta_object_name": "BOTAN",
        "meta_object_id": "1998-067XP",
        "meta_epoch": "2025-12-19T07:13:55.696512",
        "meta_mean_motion": 15.64217081,
        "meta_eccentricity": 0.0002892,
        "meta_inclination": 51.6281,
        "meta_ra_of_asc_node": 106.1105,
        "meta_arg_of_pericenter": 295.3483,
        "meta_mean_anomaly": 64.7212,
        "meta_ephemeris_type": 0,
        "meta_classification_type": "U",
        "meta_norad_cat_id": 65942,
        "meta_element_set_no": 999,
        "meta_rev_at_epoch": 1089,
        "meta_bstar": 0.00087501983,
        "meta_mean_motion_dot": 0.00085341,
        "meta_mean_motion_ddot": 0,
        "tle_line1": "1 65942U 98067XP  25353.30133908  .00085341  00000+0  87502-3 0  9996",
        "tle_line2": "2 65942  51.6281 106.1105 0002892 295.3483  64.7212 15.64217081 10895"
      },
      "geometry": {
        "type": "Point",
        "coordinates": [
          91.21387398770882,
          -16.18699902817505
        ]
      }
    },
    {
      "type": "Feature",
      "properties": {
        "norad_id": 65943,
        "name": "E-KAGAKU-1",
        "group": "stations",
        "lat": -50.77433551715595,
        "lon": 29.32472982726367,
        "alt_km": 390.33884353388567,
        "timestamp": "2025-12-19T14:48:34.990443+00:00",
        "meta_object_name": "E-KAGAKU-1",
        "meta_object_id": "1998-067XQ",
        "meta_epoch": "2025-12-18T08:24:49.666176",
        "meta_mean_motion": 15.60193795,
        "meta_eccentricity": 0.00013451,
        "meta_inclination": 51.6302,
        "meta_ra_of_asc_node": 111.7666,
        "meta_arg_of_pericenter": 249.8249,
        "meta_mean_anomaly": 110.26,
        "meta_ephemeris_type": 0,
        "meta_classification_type": "U",
        "meta_norad_cat_id": 65943,
        "meta_element_set_no": 999,
        "meta_rev_at_epoch": 1073,
        "meta_bstar": 0.00084619625,
        "meta_mean_motion_dot": 0.00070368,
        "meta_mean_motion_ddot": 0,
        "tle_line1": "1 65943U 98067XQ  25352.35057484  .00070368  00000+0  84620-3 0  9996",
        "tle_line2": "2 65943  51.6302 111.7666 0001345 249.8249 110.2600 15.60193795 10732"
      },
      "geometry": {
        "type": "Point",
        "coordinates": [
          29.32472982726367,
          -50.77433551715595
        ]
      }
    },
    {
      "type": "Feature",
      "properties": {
        "norad_id": 66052,
        "name": "HRC MONOBLOCK CAMERA",
        "group": "stations",
        "lat": 39.57290741374997,
        "lon": -113.70534108864396,
        "alt_km": 397.9233108879771,
        "timestamp": "2025-12-19T14:48:34.990453+00:00",
        "meta_object_name": "HRC MONOBLOCK CAMERA",
        "meta_object_id": "1998-067XR",
        "meta_epoch": "2025-12-18T22:50:37.822560",
        "meta_mean_motion": 15.54565744,
        "meta_eccentricity": 0.00026331,
        "meta_inclination": 51.6297,
        "meta_ra_of_asc_node": 110.5221,
        "meta_arg_of_pericenter": 211.9232,
        "meta_mean_anomaly": 148.16,
        "meta_ephemeris_type": 0,
        "meta_classification_type": "U",
        "meta_norad_cat_id": 66052,
        "meta_element_set_no": 999,
        "meta_rev_at_epoch": 980,
        "meta_bstar": 0.00046533518,
        "meta_mean_motion_dot": 0.00030942,
        "meta_mean_motion_ddot": 0,
        "tle_line1": "1 66052U 98067XR  25352.95182665  .00030942  00000+0  46534-3 0  9990",
        "tle_line2": "2 66052  51.6297 110.5221 0002633 211.9232 148.1600 15.54565744  9800"
      },
      "geometry": {
        "type": "Point",
        "coordinates": [
          -113.70534108864396,
          39.57290741374997
        ]
      }
    }
  ]
}